OBJECT_NAME,OBJECT_ID,EPOCH,MEAN_MOTION,ECCENTRICITY,INCLINATION,RA_OF_ASC_NODE,ARG_OF_PERICENTER,MEAN_ANOMALY,EPHEMERIS_TYPE,CLASSIFICATION_TYPE,NORAD_CAT_ID,ELEMENT_SET_NO,REV_AT_EPOCH,BSTAR,MEAN_MOTION_DOT,MEAN_MOTION_DDOT
STARLINK-37600,2026-123G,2026-06-25T13:04:47.614656,15.75311155,.0000956,53.1577,200.2463,134.3094,225.8004,0,U,69359,999,335,.10509E-2,.164124E-2,0
STARLINK-37599,2026-123H,2026-06-25T13:35:42.208800,15.80968031,.0000982,53.1563,199.6494,121.9911,238.1207,0,U,69360,999,336,.96694E-3,.195377E-2,0
STARLINK-37039,2026-123J,2026-06-25T20:00:01.999008,15.75163966,.0001165,53.1590,198.5441,106.7067,220.1743,0,U,69361,999,454,.44271E-3,.67543E-3,0
STARLINK-37040,2026-123K,2026-06-25T20:50:11.952960,15.80973229,.0001305,53.1571,197.9674,129.0334,231.0805,0,U,69362,999,341,.11802E-2,.239918E-2,0
STARLINK-37582,2026-123L,2026-06-25T12:51:43.341120,15.75319745,.0001166,53.1571,200.1837,122.0353,238.0780,0,U,69363,999,335,.13578E-2,.213583E-2,0
STARLINK-37309,2026-123M,2026-06-25T11:39:50.164128,15.75309218,.0001541,53.1589,199.8495,71.8403,288.2785,0,U,69364,999,335,.1353E-2,.212716E-2,0
STARLINK-37436,2026-123N,2026-06-25T11:24:51.078816,15.80984447,.000098,53.1574,199.7795,118.3458,241.7663,0,U,69365,999,335,.12415E-2,.252945E-2,0
STARLINK-37581,2026-123P,2026-06-25T13:01:18.023808,15.80972487,.0000823,53.1572,199.4874,120.3100,239.8004,0,U,69366,999,336,.11533E-2,.234284E-2,0
STARLINK-37683,2026-123Q,2026-06-25T13:36:51.835104,15.75304885,.0000951,53.1581,199.6520,178.2457,181.8567,0,U,69367,999,336,.86395E-3,.134301E-2,0
STARLINK-37687,2026-123R,2026-06-25T12:49:27.767424,15.80948393,.0001009,53.1575,199.4326,114.5955,245.5173,0,U,69368,999,336,.83072E-3,.167047E-2,0
STARLINK-37631,2026-123S,2026-06-25T12:50:35.956896,15.80966698,.0000952,53.1574,199.4376,129.7132,230.3975,0,U,69369,999,336,.97583E-3,.197211E-2,0
STARLINK-37673,2026-123T,2026-06-25T13:17:43.380384,15.75311444,.0001351,53.1589,199.5641,156.1326,203.9757,0,U,69370,999,336,.10279E-2,.160458E-2,0
STARLINK-37645,2026-123U,2026-06-25T12:58:06.969216,15.75324168,.0000991,53.1577,199.4715,146.0564,214.0520,0,U,69371,999,336,.98716E-3,.154037E-2,0
STARLINK-37688,2026-123V,2026-06-25T20:00:01.999008,15.80761521,.0001201,53.1567,197.9277,67.1416,197.5672,0,U,69372,999,460,.82303E-3,.164016E-2,0
STARLINK-37685,2026-123W,2026-06-25T12:48:14.700672,15.80960353,.0001047,53.1567,199.4248,122.1909,237.9215,0,U,69373,999,336,.99837E-3,.201831E-2,0
STARLINK-37632,2026-123X,2026-06-25T11:16:09.075072,15.80931514,.0001555,53.1565,199.7360,57.6796,302.4377,0,U,69374,999,335,.88454E-3,.178007E-2,0
STARLINK-37454,2026-123Y,2026-06-25T12:45:35.775648,15.80992956,.0000867,53.1568,199.4114,126.1228,233.9875,0,U,69375,999,336,.11346E-2,.230581E-2,0
STARLINK-37485,2026-123Z,2026-06-25T12:51:07.397856,15.75267528,.0000769,53.1586,199.4375,106.7599,253.3505,0,U,69376,999,336,.61264E-3,.94441E-3,0
STARLINK-37439,2026-123AA,2026-06-25T12:34:16.770144,15.80965810,.0001224,53.1564,199.3577,159.3357,200.7715,0,U,69377,999,336,.95898E-3,.193706E-2,0
STARLINK-37376,2026-123AB,2026-06-25T13:17:15.559584,15.75311088,.0001275,53.1595,199.5582,138.9154,221.1962,0,U,69378,999,336,.10819E-2,.169086E-2,0
STARLINK-37383,2026-123AC,2026-06-25T12:29:11.889600,15.80977944,.0000439,53.1566,199.3326,132.4446,227.6613,0,U,69379,999,336,.11995E-2,.244034E-2,0
STARLINK-37411,2026-123AD,2026-06-25T14:07:16.561632,15.80954879,.0001045,53.1566,199.0501,121.5992,238.5133,0,U,69380,999,337,.84336E-3,.169703E-2,0
STARLINK-37427,2026-123AE,2026-06-25T12:30:19.833696,15.80989326,.000095,53.1564,199.3382,134.5479,225.5621,0,U,69381,999,336,.14445E-2,.295972E-2,0
QIANFAN-165,2026-124A,2026-06-25T21:04:30.590112,14.16013702,.0003442,88.9984,1.0576,109.3355,250.8205,0,U,69382,999,304,.54259E-4,.121E-5,0
QIANFAN-166,2026-124B,2026-06-25T19:07:10.144416,14.17060900,.000297,88.9985,1.0641,102.9175,257.2346,0,U,69383,999,303,.55526E-4,.126E-5,0
QIANFAN-167,2026-124C,2026-06-25T19:12:05.538240,14.16527210,.0002913,88.9984,1.0644,142.6717,217.4674,0,U,69384,999,303,.50371E-4,.115E-5,0
QIANFAN-168,2026-124D,2026-06-25T18:54:57.525120,14.17874163,.0003766,88.9984,1.0627,119.2557,240.9009,0,U,69385,999,303,.50069E-4,.117E-5,0
QIANFAN-169,2026-124E,2026-06-25T18:47:55.727232,14.18287861,.0004051,88.9984,1.0619,134.2321,225.9202,0,U,69386,999,303,.51381E-4,.12E-5,0
QIANFAN-170,2026-124F,2026-06-25T18:36:22.190112,14.19184636,.0003638,88.9984,1.0606,114.8456,245.3113,0,U,69387,999,303,.44032E-4,.107E-5,0
QIANFAN-171,2026-124G,2026-06-25T20:05:54.363264,14.20068711,.0003058,88.9984,1.0514,155.4617,204.6720,0,U,69388,999,304,.44759E-4,.11E-5,0
