STARLINK-37600          
1 69359U 26123G   26176.54499554  .00164124  00000+0  10509-2 0  9997
2 69359  53.1577 200.2463 0000956 134.3094 225.8004 15.75311155  3359
STARLINK-37599          
1 69360U 26123H   26176.56646075  .00195377  00000+0  96694-3 0  9997
2 69360  53.1563 199.6494 0000982 121.9911 238.1207 15.80968031  3360
STARLINK-37039          
1 69361U 26123J   26176.83335647  .00067543  00000+0  44271-3 0  9995
2 69361  53.1590 198.5441 0001165 106.7067 220.1743 15.75163966  4543
STARLINK-37040          
1 69362U 26123K   26176.86819390  .00239918  00000+0  11802-2 0  9991
2 69362  53.1571 197.9674 0001305 129.0334 231.0805 15.80973229  3417
STARLINK-37582          
1 69363U 26123L   26176.53591830  .00213583  00000+0  13578-2 0  9994
2 69363  53.1571 200.1837 0001166 122.0353 238.0780 15.75319745  3358
STARLINK-37309          
1 69364U 26123M   26176.48599727  .00212716  00000+0  13530-2 0  9997
2 69364  53.1589 199.8495 0001541  71.8403 288.2785 15.75309218  3352
STARLINK-37436          
1 69365U 26123N   26176.47559119  .00252945  00000+0  12415-2 0  9997
2 69365  53.1574 199.7795 0000980 118.3458 241.7663 15.80984447  3350
STARLINK-37581          
1 69366U 26123P   26176.54256972  .00234284  00000+0  11533-2 0  9993
2 69366  53.1572 199.4874 0000823 120.3100 239.8004 15.80972487  3366
STARLINK-37683          
1 69367U 26123Q   26176.56726661  .00134301  00000+0  86395-3 0  9991
2 69367  53.1581 199.6520 0000951 178.2457 181.8567 15.75304885  3361
STARLINK-37687          
1 69368U 26123R   26176.53434916  .00167047  00000+0  83072-3 0  9990
2 69368  53.1575 199.4326 0001009 114.5955 245.5173 15.80948393  3363
STARLINK-37631          
1 69369U 26123S   26176.53513839  .00197211  00000+0  97583-3 0  9991
2 69369  53.1574 199.4376 0000952 129.7132 230.3975 15.80966698  3369
STARLINK-37673          
1 69370U 26123T   26176.55397431  .00160458  00000+0  10279-2 0  9992
2 69370  53.1589 199.5641 0001351 156.1326 203.9757 15.75311444  3367
STARLINK-37645          
1 69371U 26123U   26176.54035844  .00154037  00000+0  98716-3 0  9998
2 69371  53.1577 199.4715 0000991 146.0564 214.0520 15.75324168  3365
STARLINK-37688          
1 69372U 26123V   26176.83335647  .00164016  00000+0  82303-3 0  9998
2 69372  53.1567 197.9277 0001201  67.1416 197.5672 15.80761521  4600
STARLINK-37685          
1 69373U 26123W   26176.53350348  .00201831  00000+0  99837-3 0  9998
2 69373  53.1567 199.4248 0001047 122.1909 237.9215 15.80960353  3361
STARLINK-37632          
1 69374U 26123X   26176.46954948  .00178007  00000+0  88454-3 0  9998
2 69374  53.1565 199.7360 0001555  57.6796 302.4377 15.80931514  3351
STARLINK-37454          
1 69375U 26123Y   26176.53166407  .00230581  00000+0  11346-2 0  9993
2 69375  53.1568 199.4114 0000867 126.1228 233.9875 15.80992956  3365
STARLINK-37485          
1 69376U 26123Z   26176.53550229  .00094441  00000+0  61264-3 0  9991
2 69376  53.1586 199.4375 0000769 106.7599 253.3505 15.75267528  3361
STARLINK-37439          
1 69377U 26123AA  26176.52380521  .00193706  00000+0  95898-3 0  9991
2 69377  53.1564 199.3577 0001224 159.3357 200.7715 15.80965810  3368
STARLINK-37376          
1 69378U 26123AB  26176.55365231  .00169086  00000+0  10819-2 0  9999
2 69378  53.1595 199.5582 0001275 138.9154 221.1962 15.75311088  3362
STARLINK-37383          
1 69379U 26123AC  26176.52027650  .00244034  00000+0  11995-2 0  9990
2 69379  53.1566 199.3326 0000439 132.4446 227.6613 15.80977944  3368
STARLINK-37411          
1 69380U 26123AD  26176.58838613  .00169703  00000+0  84336-3 0  9996
2 69380  53.1566 199.0501 0001045 121.5992 238.5133 15.80954879  3372
STARLINK-37427          
1 69381U 26123AE  26176.52106289  .00295972  00000+0  14445-2 0  9999
2 69381  53.1564 199.3382 0000950 134.5479 225.5621 15.80989326  3361
QIANFAN-165             
1 69382U 26124A   26176.87813183  .00000121  00000+0  54259-4 0  9996
2 69382  88.9984   1.0576 0003442 109.3355 250.8205 14.16013702  3048
QIANFAN-166             
1 69383U 26124B   26176.79664519  .00000126  00000+0  55526-4 0  9998
2 69383  88.9985   1.0641 0002970 102.9175 257.2346 14.17060900  3036
QIANFAN-167             
1 69384U 26124C   26176.80006410  .00000115  00000+0  50371-4 0  9992
2 69384  88.9984   1.0644 0002913 142.6717 217.4674 14.16527210  3032
QIANFAN-168             
1 69385U 26124D   26176.78816580  .00000117  00000+0  50069-4 0  9993
2 69385  88.9984   1.0627 0003766 119.2557 240.9009 14.17874163  3039
QIANFAN-169             
1 69386U 26124E   26176.78328388  .00000120  00000+0  51381-4 0  9990
2 69386  88.9984   1.0619 0004051 134.2321 225.9202 14.18287861  3037
QIANFAN-170             
1 69387U 26124F   26176.77525683  .00000107  00000+0  44032-4 0  9997
2 69387  88.9984   1.0606 0003638 114.8456 245.3113 14.19184636  3031
QIANFAN-171             
1 69388U 26124G   26176.83743476  .00000110  00000+0  44759-4 0  9997
2 69388  88.9984   1.0514 0003058 155.4617 204.6720 14.20068711  3046
